{"type": "FeatureCollection", "features": [ {"type": "Feature", "properties": {"norad_id": 34790, "name": "COSMOS 2251 DEB", "group": "cosmos-2251-debris", "lat": -71.74220549765845, "lon": 119.41289892270463, "alt_km": 760.2706470221692, "timestamp": "2025-12-15T04:01:20.847161+00:00", "meta": {"OBJECT_NAME": "COSMOS 2251 DEB", "OBJECT_ID": "1993-036AAT", "EPOCH": "2025-12-13T23:55:25.217760", "MEAN_MOTION": 14.24639808, "ECCENTRICITY": 0.01008811, "INCLINATION": 74.0532, "RA_OF_ASC_NODE": 241.4434, "ARG_OF_PERICENTER": 302.7395, "MEAN_ANOMALY": 76.7632, "EPHEMERIS_TYPE": 0, "CLASSIFICATION_TYPE": "U", "NORAD_CAT_ID": 34790, "ELEMENT_SET_NO": 999, "REV_AT_EPOCH": 86591, "BSTAR": 0.00087251281, "MEAN_MOTION_DOT": 2.113e-05, "MEAN_MOTION_DDOT": 0}, "tle": {"line1": "1 34790U 93036AAT 25347.99681965  .00002113  00000+0  87251-3 0  9990", "line2": "2 34790  74.0532 241.4434 0100881 302.7395  76.7632 14.24639808865910"}}, "geometry": {"type": "Point", "coordinates": [119.41289892270463, -71.74220549765845]}}, {"type": "Feature", "properties": {"norad_id": 34792, "name": "COSMOS 2251 DEB", "group": "cosmos-2251-debris", "lat": 53.29599901775755, "lon": -37.508140526489505, "alt_km": 707.1103808488269, "timestamp": "2025-12-15T04:01:20.847176+00:00", "meta": {"OBJECT_NAME": "COSMOS 2251 DEB", "OBJECT_ID": "1993-036AAV", "EPOCH": "2025-12-13T22:19:44.182272", "MEAN_MOTION": 14.55968926, "ECCENTRICITY": 0.00124715, "INCLINATION": 74.0174, "RA_OF_ASC_NODE": 167.4491, "ARG_OF_PERICENTER": 261.5199, "MEAN_ANOMALY": 219.7065, "EPHEMERIS_TYPE": 0, "CLASSIFICATION_TYPE": "U", "NORAD_CAT_ID": 34792, "ELEMENT_SET_NO": 999, "REV_AT_EPOCH": 87667, "BSTAR": 0.0011899315, "MEAN_MOTION_DOT": 5.213e-05, "MEAN_MOTION_DDOT": 0}, "tle": {"line1": "1 34792U 93036AAV 25347.93037248  .00005213  00000+0  11899-2 0  9993", "line2": "2 34792  74.0174 167.4491 0012471 261.5199 219.7065 14.55968926876679"}}, "geometry": {"type": "Point", "coordinates": [-37.508140526489505, 53.29599901775755]}}, {"type": "Feature", "properties": {"norad_id": 34793, "name": "COSMOS 2251 DEB", "group": "cosmos-2251-debris", "lat": 63.43107698391884, "lon": 30.876178554226183, "alt_km": 745.1760095280524, "timestamp": "2025-12-15T04:01:20.847187+00:00", "meta": {"OBJECT_NAME": "COSMOS 2251 DEB", "OBJECT_ID": "1993-036AAW", "EPOCH": "2025-12-14T04:51:40.864320", "MEAN_MOTION": 14.38647614, "ECCENTRICITY": 0.0050369, "INCLINATION": 74.0027, "RA_OF_ASC_NODE": 247.6645, "ARG_OF_PERICENTER": 41.4045, "MEAN_ANOMALY": 113.4058, "EPHEMERIS_TYPE": 0, "CLASSIFICATION_TYPE": "U", "NORAD_CAT_ID": 34793, "ELEMENT_SET_NO": 999, "REV_AT_EPOCH": 87351, "BSTAR": 0.00033695017, "MEAN_MOTION_DOT": 1.022e-05, "MEAN_MOTION_DDOT": 0}, "tle": {"line1": "1 34793U 93036AAW 25348.20255630  .00001022  00000+0  33695-3 0  9995", "line2": "2 34793  74.0027 247.6645 0050369  41.4045 113.4058 14.38647614873513"}}, "geometry": {"type": "Point", "coordinates": [30.876178554226183, 63.43107698391884]}}, {"type": "Feature", "properties": {"norad_id": 34796, "name": "COSMOS 2251 DEB", "group": "cosmos-2251-debris", "lat": -62.850430348394276, "lon": 177.84570752613354, "alt_km": 670.0516564110712, "timestamp": "2025-12-15T04:01:20.847197+00:00", "meta": {"OBJECT_NAME": "COSMOS 2251 DEB", "OBJECT_ID": "1993-036AAZ", "EPOCH": "2025-12-13T16:09:22.764096", "MEAN_MOTION": 14.4869684, "ECCENTRICITY": 0.01002849, "INCLINATION": 74.0294, "RA_OF_ASC_NODE": 214.5945, "ARG_OF_PERICENTER": 316.4175, "MEAN_ANOMALY": 105.5536, "EPHEMERIS_TYPE": 0, "CLASSIFICATION_TYPE": "U", "NORAD_CAT_ID": 34796, "ELEMENT_SET_NO": 999, "REV_AT_EPOCH": 88041, "BSTAR": 0.0007800698, "MEAN_MOTION_DOT": 3.104e-05, "MEAN_MOTION_DDOT": 0}, "tle": {"line1": "1 34796U 93036AAZ 25347.67318014  .00003104  00000+0  78007-3 0  9993", "line2": "2 34796  74.0294 214.5945 0100284 316.4175 105.5536 14.48696840880415"}}, "geometry": {"type": "Point", "coordinates": [177.84570752613354, -62.850430348394276]}}, {"type": "Feature", "properties": {"norad_id": 34797, "name": "COSMOS 2251 DEB", "group": "cosmos-2251-debris", "lat": 4.3728230704091136, "lon": 96.72584922243668, "alt_km": 798.1875486112203, "timestamp": "2025-12-15T04:01:20.847207+00:00", "meta": {"OBJECT_NAME": "COSMOS 2251 DEB", "OBJECT_ID": "1993-036ABA", "EPOCH": "2025-12-08T02:15:30.483648", "MEAN_MOTION": 14.42690241, "ECCENTRICITY": 0.00721111, "INCLINATION": 73.9779, "RA_OF_ASC_NODE": 108.638, "ARG_OF_PERICENTER": 222.8023, "MEAN_ANOMALY": 136.7506, "EPHEMERIS_TYPE": 0, "CLASSIFICATION_TYPE": "U", "NORAD_CAT_ID": 34797, "ELEMENT_SET_NO": 999, "REV_AT_EPOCH": 87348, "BSTAR": 0.0033221371, "MEAN_MOTION_DOT": 0.00011397, "MEAN_MOTION_DDOT": 0}, "tle": {"line1": "1 34797U 93036ABA 25342.09410282  .00011397  00000+0  33221-2 0  9996", "line2": "2 34797  73.9779 108.6380 0072111 222.8023 136.7506 14.42690241873482"}}, "geometry": {"type": "Point", "coordinates": [96.72584922243668, 4.3728230704091136]}}, {"type": "Feature", "properties": {"norad_id": 34814, "name": "COSMOS 2251 DEB", "group": "cosmos-2251-debris", "lat": -59.00952702148069, "lon": -67.8131988085132, "alt_km": 773.1083478519004, "timestamp": "2025-12-15T04:01:20.847217+00:00", "meta": {"OBJECT_NAME": "COSMOS 2251 DEB", "OBJECT_ID": "1993-036ABD", "EPOCH": "2025-12-13T09:35:04.706592", "MEAN_MOTION": 14.36900773, "ECCENTRICITY": 0.00561488, "INCLINATION": 73.8959, "RA_OF_ASC_NODE": 324.2145, "ARG_OF_PERICENTER": 213.5869, "MEAN_ANOMALY": 299.4235, "EPHEMERIS_TYPE": 0, "CLASSIFICATION_TYPE": "U", "NORAD_CAT_ID": 34814, "ELEMENT_SET_NO": 999, "REV_AT_EPOCH": 87342, "BSTAR": 0.0012584251, "MEAN_MOTION_DOT": 3.766e-05, "MEAN_MOTION_DDOT": 0}, "tle": {"line1": "1 34814U 93036ABD 25347.39936003  .00003766  00000+0  12584-2 0  9998", "line2": "2 34814  73.8959 324.2145 0056148 213.5869 299.4235 14.36900773873420"}}, "geometry": {"type": "Point", "coordinates": [-67.8131988085132, -59.00952702148069]}}, {"type": "Feature", "properties": {"norad_id": 34815, "name": "COSMOS 2251 DEB", "group": "cosmos-2251-debris", "lat": 73.61578594973882, "lon": -19.631262028631884, "alt_km": 662.1378560250123, "timestamp": "2025-12-15T04:01:20.847227+00:00", "meta": {"OBJECT_NAME": "COSMOS 2251 DEB", "OBJECT_ID": "1993-036ABE", "EPOCH": "2025-12-14T03:14:15.513792", "MEAN_MOTION": 14.78339156, "ECCENTRICITY": 0.00588556, "INCLINATION": 74.0449, "RA_OF_ASC_NODE": 239.0609, "ARG_OF_PERICENTER": 307.8231, "MEAN_ANOMALY": 51.7625, "EPHEMERIS_TYPE": 0, "CLASSIFICATION_TYPE": "U", "NORAD_CAT_ID": 34815, "ELEMENT_SET_NO": 999, "REV_AT_EPOCH": 88648, "BSTAR": 0.00090407047, "MEAN_MOTION_DOT": 6.74e-05, "MEAN_MOTION_DDOT": 0}, "tle": {"line1": "1 34815U 93036ABE 25348.13490178  .00006740  00000+0  90407-3 0  9996", "line2": "2 34815  74.0449 239.0609 0058855 307.8231  51.7625 14.78339156886482"}}, "geometry": {"type": "Point", "coordinates": [-19.631262028631884, 73.61578594973882]}}, {"type": "Feature", "properties": {"norad_id": 34816, "name": "COSMOS 2251 DEB", "group": "cosmos-2251-debris", "lat": 67.15542660457902, "lon": -177.51123645439512, "alt_km": 1205.1297429198103, "timestamp": "2025-12-15T04:01:20.847237+00:00", "meta": {"OBJECT_NAME": "COSMOS 2251 DEB", "OBJECT_ID": "1993-036ABF", "EPOCH": "2025-12-14T03:29:02.256864", "MEAN_MOTION": 13.58328095, "ECCENTRICITY": 0.03733885, "INCLINATION": 73.8862, "RA_OF_ASC_NODE": 140.8284, "ARG_OF_PERICENTER": 205.0597, "MEAN_ANOMALY": 274.0659, "EPHEMERIS_TYPE": 0, "CLASSIFICATION_TYPE": "U", "NORAD_CAT_ID": 34816, "ELEMENT_SET_NO": 999, "REV_AT_EPOCH": 82802, "BSTAR": 0.0016074994, "MEAN_MOTION_DOT": 1.819e-05, "MEAN_MOTION_DDOT": 0}, "tle": {"line1": "1 34816U 93036ABF 25348.14516501  .00001819  00000+0  16075-2 0  9997", "line2": "2 34816  73.8862 140.8284 0373388 205.0597 274.0659 13.58328095828022"}}, "geometry": {"type": "Point", "coordinates": [-177.51123645439512, 67.15542660457902]}}, {"type": "Feature", "properties": {"norad_id": 34818, "name": "COSMOS 2251 DEB", "group": "cosmos-2251-debris", "lat": 7.9276397656870135, "lon": -65.24012008805714, "alt_km": 752.7209429175873, "timestamp": "2025-12-15T04:01:20.847248+00:00", "meta": {"OBJECT_NAME": "COSMOS 2251 DEB", "OBJECT_ID": "1993-036ABH", "EPOCH": "2025-12-14T06:57:49.282272", "MEAN_MOTION": 14.36969532, "ECCENTRICITY": 0.00242402, "INCLINATION": 74.036, "RA_OF_ASC_NODE": 294.0881, "ARG_OF_PERICENTER": 9.3899, "MEAN_ANOMALY": 141.6705, "EPHEMERIS_TYPE": 0, "CLASSIFICATION_TYPE": "U", "NORAD_CAT_ID": 34818, "ELEMENT_SET_NO": 999, "REV_AT_EPOCH": 87392, "BSTAR": 0.00029685586, "MEAN_MOTION_DOT": 8.56e-06, "MEAN_MOTION_DDOT": 0}, "tle": {"line1": "1 34818U 93036ABH 25348.29015373  .00000856  00000+0  29686-3 0  9999", "line2": "2 34818  74.0360 294.0881 0024240   9.3899 141.6705 14.36969532873929"}}, "geometry": {"type": "Point", "coordinates": [-65.24012008805714, 7.9276397656870135]}}, {"type": "Feature", "properties": {"norad_id": 34819, "name": "COSMOS 2251 DEB", "group": "cosmos-2251-debris", "lat": 17.163135377153157, "lon": -47.08610091872372, "alt_km": 676.5899337529272, "timestamp": "2025-12-15T04:01:20.847259+00:00", "meta": {"OBJECT_NAME": "COSMOS 2251 DEB", "OBJECT_ID": "1993-036ABJ", "EPOCH": "2025-12-14T03:13:21.079200", "MEAN_MOTION": 14.63997819, "ECCENTRICITY": 0.00157122, "INCLINATION": 74.0175, "RA_OF_ASC_NODE": 139.978, "ARG_OF_PERICENTER": 234.2425, "MEAN_ANOMALY": 244.094, "EPHEMERIS_TYPE": 0, "CLASSIFICATION_TYPE": "U", "NORAD_CAT_ID": 34819, "ELEMENT_SET_NO": 999, "REV_AT_EPOCH": 88249, "BSTAR": 0.0017059273, "MEAN_MOTION_DOT": 8.937e-05, "MEAN_MOTION_DDOT": 0}, "tle": {"line1": "1 34819U 93036ABJ 25348.13427175  .00008937  00000+0  17059-2 0  9998", "line2": "2 34819  74.0175 139.9780 0015712 234.2425 244.0940 14.63997819882497"}}, "geometry": {"type": "Point", "coordinates": [-47.08610091872372, 17.163135377153157]}}]}